STARLINK-36657          
1 67835U 26033Q   26064.77031754  .00158252  00000+0  73877-3 0  9992
2 67835  42.9965 295.4076 0002999 277.9010  82.1522 15.82060314  4008
STARLINK-36650          
1 67836U 26033R   26064.76957037  .00123809  00000+0  58111-3 0  9997
2 67836  42.9964 295.4016 0002819 272.9852  87.0697 15.82050659  4000
STARLINK-36649          
1 67837U 26033S   26064.76881932  .00297735  00000+0  13626-2 0  9999
2 67837  42.9967 295.3941 0002486 273.6979  86.3608 15.82105957  4004
STARLINK-36654          
1 67838U 26033T   26064.76806778  .00183808  00000+0  85480-3 0  9998
2 67838  42.9972 295.3874 0002514 273.9909  86.0675 15.82070400  4009
STARLINK-36652          
1 67839U 26033U   26064.76731707  .00124692  00000+0  58594-3 0  9990
2 67839  42.9965 295.3818 0001373 232.3868 127.6879 15.82025688  4001
STARLINK-36651          
1 67840U 26033V   26064.76656546  .00352034  00000+0  16062-2 0  9995
2 67840  42.9971 295.3748 0005681 151.6202 208.4980 15.82018229  4007
STARLINK-36656          
1 67841U 26033W   26064.76582289  .00223482  00000+0  10339-2 0  9993
2 67841  42.9970 295.3688 0002129 256.4288 103.6347 15.82073014  4008
STARLINK-36653          
1 67842U 26033X   26064.76507162  .00319691  00000+0  14658-2 0  9997
2 67842  42.9972 295.3629 0003161 171.8388 188.2535 15.82007442  4004
STARLINK-36589          
1 67843U 26033Y   26064.76432519  .00430760  00000+0  19510-2 0  9994
2 67843  42.9968 295.3562 0002108 275.6594  84.4038 15.81984969  4000
STARLINK-36598          
1 67844U 26033Z   26064.76357490  .00351515  00000+0  16068-2 0  9994
2 67844  42.9981 295.3518 0002400 287.6988  72.3622 15.81992082  4002
STARLINK-36606          
1 67845U 26033AA  26064.76282732  .00165749  00000+0  77331-3 0  9994
2 67845  42.9970 295.3444 0001951 271.3192  88.7456 15.82053823  4004
STARLINK-36658          
1 67846U 26033AB  26064.76207473  .00233159  00000+0  10754-2 0  9990
2 67846  42.9967 295.3373 0002193 244.4099 115.6546 15.82111776  4000
STARLINK-36618          
1 67847U 26033AC  26064.83334490 -.01320484  50625-3 -36871-2 0  9990
2 67847  42.9844 293.0200 0001972 275.4205 152.8762 15.92801883  4049
STARLINK-36660          
1 67848U 26033AD  26064.76132522  .00254914  00000+0  11737-2 0  9998
2 67848  42.9967 295.3327 0001884 264.0050  96.0607 15.82091579  4000
STARLINK-36602          
1 67849U 26033AE  26064.76057682  .00165994  00000+0  77384-3 0  9992
2 67849  42.9969 295.3246 0001985 250.2157 109.8501 15.82070215  4000
STARLINK-36840          
1 67850U 26034A   26064.74880265  .00233095  00000+0  11479-2 0  9994
2 67850  53.1591 231.1085 0000736  66.1685 293.9415 15.80967512  3314
